start=new Date('2023-02-07T00:00:00.000Z').valueOf();
sats=[{"REF_FRAME":"TEME","APOAPSIS":"548.022","EPHEMERIS_TYPE":"0","INCLINATION":"53.0551","RA_OF_ASC_NODE":"116.3061","MEAN_ELEMENT_THEORY":"SGP4","OBJECT_TYPE":"PAYLOAD","CLASSIFICATION_TYPE":"U","EPOCH":"2023-02-06T14:30:37.737216","RCS_SIZE":"LARGE","DECAY_DATE":null,"MEAN_MOTION_DOT":"0.00001721","FILE":"3776034","SITE":"AFETR","ELEMENT_SET_NO":"999","SEMIMAJOR_AXIS":"6925.294","MEAN_ANOMALY":"271.4268","PERIAPSIS":"546.295","BSTAR":"0.00013432000000","COUNTRY_CODE":"US","PERIOD":"95.591","TLE_LINE2":"2 46066  53.0551 116.3061 0001247  88.6864 271.4268 15.06417864139426","ARG_OF_PERICENTER":"88.6864","REV_AT_EPOCH":"13942","MEAN_MOTION":"15.06417864","NORAD_CAT_ID":"46066","GP_ID":"224649387","ECCENTRICITY":"0.00012470","MEAN_MOTION_DDOT":"0.0000000000000","LAUNCH_DATE":"2020-08-07","CENTER_NAME":"EARTH","TIME_SYSTEM":"UTC","OBJECT_NAME":"STARLINK-1525","TLE_LINE1":"1 46066U 20055AR  23037.60460344  .00001721  00000-0  13432-3 0  9993","OBJECT_ID":"2020-055AR"},{"NORAD_CAT_ID":"46067","MEAN_MOTION":"15.06409499","ECCENTRICITY":"0.00014120","GP_ID":"224648136","LAUNCH_DATE":"2020-08-07","MEAN_MOTION_DDOT":"0.0000000000000","TIME_SYSTEM":"UTC","CENTER_NAME":"EARTH","OBJECT_NAME":"STARLINK-1529","TLE_LINE1":"1 46067U 20055AS  23037.60735191  .00000475  00000-0  50798-4 0  9991","OBJECT_ID":"2020-055AS","TLE_LINE2":"2 46067  53.0537 116.2764 0001412  83.7247 276.3903 15.06409499139431","ARG_OF_PERICENTER":"83.7247","REV_AT_EPOCH":"13943","DECAY_DATE":null,"MEAN_MOTION_DOT":"0.00000475","FILE":"3776034","SITE":"AFETR","SEMIMAJOR_AXIS":"6925.319","ELEMENT_SET_NO":"999","PERIAPSIS":"546.207","MEAN_ANOMALY":"276.3903","BSTAR":"0.00005079800000","PERIOD":"95.592","COUNTRY_CODE":"US","APOAPSIS":"548.162","REF_FRAME":"TEME","EPHEMERIS_TYPE":"0","INCLINATION":"53.0537","MEAN_ELEMENT_THEORY":"SGP4","RA_OF_ASC_NODE":"116.2764","OBJECT_TYPE":"PAYLOAD","CLASSIFICATION_TYPE":"U","EPOCH":"2023-02-06T14:34:35.205024","RCS_SIZE":"LARGE"},{"OBJECT_NAME":"STARLINK-1532","OBJECT_ID":"2020-055AT","TLE_LINE1":"1 46068U 20055AT  23037.48571548  .00000525  00000-0  54133-4 0  9995","GP_ID":"224605056","ECCENTRICITY":"0.00011930","MEAN_MOTION":"15.06406875","NORAD_CAT_ID":"46068","TIME_SYSTEM":"UTC","CENTER_NAME":"EARTH","LAUNCH_DATE":"2020-08-07","MEAN_MOTION_DDOT":"0.0000000000000","ARG_OF_PERICENTER":"68.0144","REV_AT_EPOCH":"13941","TLE_LINE2":"2 46068  53.0554 116.8305 0001193  68.0144 292.0972 15.06406875139410","BSTAR":"0.00005413300000","MEAN_ANOMALY":"292.0972","PERIAPSIS":"546.366","COUNTRY_CODE":"US","PERIOD":"95.592","MEAN_MOTION_DOT":"0.00000525","DECAY_DATE":null,"SITE":"AFETR","SEMIMAJOR_AXIS":"6925.327","ELEMENT_SET_NO":"999","FILE":"3775254","OBJECT_TYPE":"PAYLOAD","RCS_SIZE":"LARGE","EPOCH":"2023-02-06T11:39:25.817472","CLASSIFICATION_TYPE":"U","EPHEMERIS_TYPE":"0","APOAPSIS":"548.019","REF_FRAME":"TEME","RA_OF_ASC_NODE":"116.8305","MEAN_ELEMENT_THEORY":"SGP4","INCLINATION":"53.0554"},{"MEAN_MOTION_DDOT":"0.0000000000000","LAUNCH_DATE":"2020-08-07","TIME_SYSTEM":"UTC","CENTER_NAME":"EARTH","NORAD_CAT_ID":"46069","MEAN_MOTION":"15.06409079","GP_ID":"224648637","ECCENTRICITY":"0.00011140","TLE_LINE1":"1 46069U 20055AU  23037.89948694  .00003243  00000-0  23642-3 0  9991","OBJECT_ID":"2020-055AU","OBJECT_NAME":"STARLINK-1533","TLE_LINE2":"2 46069  53.0524 114.9852 0001114  99.3639 260.7476 15.06409079139480","REV_AT_EPOCH":"13948","ARG_OF_PERICENTER":"99.3639","FILE":"3776034","SITE":"AFETR","ELEMENT_SET_NO":"999","SEMIMAJOR_AXIS":"6925.321","DECAY_DATE":null,"MEAN_MOTION_DOT":"0.00003243","PERIOD":"95.592","COUNTRY_CODE":"US","PERIAPSIS":"546.414","MEAN_ANOMALY":"260.7476","BSTAR":"0.00023642000000","INCLINATION":"53.0524","MEAN_ELEMENT_THEORY":"SGP4","RA_OF_ASC_NODE":"114.9852","REF_FRAME":"TEME","APOAPSIS":"547.957","EPHEMERIS_TYPE":"0","CLASSIFICATION_TYPE":"U","EPOCH":"2023-02-06T21:35:15.671616","RCS_SIZE":"LARGE","OBJECT_TYPE":"PAYLOAD"},{"TLE_LINE1":"1 46070U 20055AV  23037.58246912  .00003185  00000-0  23246-3 0  9998","OBJECT_ID":"2020-055AV","OBJECT_NAME":"STARLINK-1536","MEAN_MOTION_DDOT":"0.0000000000000","LAUNCH_DATE":"2020-08-07","CENTER_NAME":"EARTH","TIME_SYSTEM":"UTC","MEAN_MOTION":"15.06429900","NORAD_CAT_ID":"46070","GP_ID":"224648888","ECCENTRICITY":"0.00015420","REV_AT_EPOCH":"13943","ARG_OF_PERICENTER":"86.3748","TLE_LINE2":"2 46070  53.0545 116.4099 0001542  86.3748 273.7417 15.06429900139436","COUNTRY_CODE":"US","PERIOD":"95.590","MEAN_ANOMALY":"273.7417","PERIAPSIS":"546.054","BSTAR":"0.00023246000000","FILE":"3776034","SEMIMAJOR_AXIS":"6925.257","SITE":"AFETR","ELEMENT_SET_NO":"999","DECAY_DATE":null,"MEAN_MOTION_DOT":"0.00003185","CLASSIFICATION_TYPE":"U","EPOCH":"2023-02-06T13:58:45.331968","RCS_SIZE":"LARGE","OBJECT_TYPE":"PAYLOAD","INCLINATION":"53.0545","RA_OF_ASC_NODE":"116.4099","MEAN_ELEMENT_THEORY":"SGP4","REF_FRAME":"TEME","APOAPSIS":"548.190","EPHEMERIS_TYPE":"0"},{"PERIOD":"95.591","COUNTRY_CODE":"US","PERIAPSIS":"546.382","MEAN_ANOMALY":"263.9758","BSTAR":"0.00005978700000","FILE":"3776034","SITE":"AFETR","ELEMENT_SET_NO":"999","SEMIMAJOR_AXIS":"6925.279","DECAY_DATE":null,"MEAN_MOTION_DOT":"0.00000610","EPOCH":"2023-02-06T14:25:19.170912","CLASSIFICATION_TYPE":"U","RCS_SIZE":"LARGE","OBJECT_TYPE":"PAYLOAD","INCLINATION":"53.0535","MEAN_ELEMENT_THEORY":"SGP4","RA_OF_ASC_NODE":"116.3242","REF_FRAME":"TEME","APOAPSIS":"547.905","EPHEMERIS_TYPE":"0","TLE_LINE1":"1 46071U 20055AW  23037.60091633  .00000610  00000-0  59787-4 0  9990","OBJECT_ID":"2020-055AW","OBJECT_NAME":"STARLINK-1538","MEAN_MOTION_DDOT":"0.0000000000000","LAUNCH_DATE":"2020-08-07","TIME_SYSTEM":"UTC","CENTER_NAME":"EARTH","NORAD_CAT_ID":"46071","MEAN_MOTION":"15.06422834","GP_ID":"224647637","ECCENTRICITY":"0.00010990","REV_AT_EPOCH":"13943","ARG_OF_PERICENTER":"96.1357","TLE_LINE2":"2 46071  53.0535 116.3242 0001099  96.1357 263.9758 15.06422834139435"},{"FILE":"3776034","SITE":"AFETR","ELEMENT_SET_NO":"999","SEMIMAJOR_AXIS":"6925.290","DECAY_DATE":null,"MEAN_MOTION_DOT":"0.00002182","COUNTRY_CODE":"US","PERIOD":"95.591","MEAN_ANOMALY":"273.5436","PERIAPSIS":"546.220","BSTAR":"0.00016525000000","INCLINATION":"53.0534","RA_OF_ASC_NODE":"115.9101","MEAN_ELEMENT_THEORY":"SGP4","REF_FRAME":"TEME","APOAPSIS":"548.090","EPHEMERIS_TYPE":"0","CLASSIFICATION_TYPE":"U","EPOCH":"2023-02-06T16:36:39.018528","RCS_SIZE":"LARGE","OBJECT_TYPE":"PAYLOAD","MEAN_MOTION_DDOT":"0.0000000000000","LAUNCH_DATE":"2020-08-07","TIME_SYSTEM":"UTC","CENTER_NAME":"EARTH","MEAN_MOTION":"15.06419083","NORAD_CAT_ID":"46072","ECCENTRICITY":"0.00013500","GP_ID":"224647886","TLE_LINE1":"1 46072U 20055AX  23037.69211827  .00002182  00000-0  16525-3 0  9997","OBJECT_ID":"2020-055AX","OBJECT_NAME":"STARLINK-1539","TLE_LINE2":"2 46072  53.0534 115.9101 0001350  86.5708 273.5436 15.06419083139439","REV_AT_EPOCH":"13943","ARG_OF_PERICENTER":"86.5708"},{"REF_FRAME":"TEME","APOAPSIS":"548.163","EPHEMERIS_TYPE":"0","INCLINATION":"53.0560","RA_OF_ASC_NODE":"114.9428","MEAN_ELEMENT_THEORY":"SGP4","OBJECT_TYPE":"PAYLOAD","EPOCH":"2023-02-06T21:45:52.306560","CLASSIFICATION_TYPE":"U","RCS_SIZE":"LARGE","DECAY_DATE":null,"MEAN_MOTION_DOT":"-0.00000010","FILE":"3776034","SITE":"AFETR","ELEMENT_SET_NO":"999","SEMIMAJOR_AXIS":"6925.321","MEAN_ANOMALY":"272.5412","PERIAPSIS":"546.209","BSTAR":"0.00001825100000","COUNTRY_CODE":"US","PERIOD":"95.592","TLE_LINE2":"2 46073  53.0560 114.9428 0001411  87.5738 272.5412 15.06408929139476","ARG_OF_PERICENTER":"87.5738","REV_AT_EPOCH":"13947","MEAN_MOTION":"15.06408929","NORAD_CAT_ID":"46073","GP_ID":"224649137","ECCENTRICITY":"0.00014110","LAUNCH_DATE":"2020-08-07","MEAN_MOTION_DDOT":"0.0000000000000","CENTER_NAME":"EARTH","TIME_SYSTEM":"UTC","OBJECT_NAME":"STARLINK-1542","TLE_LINE1":"1 46073U 20055AY  23037.90685540 -.00000010  00000-0  18251-4 0  9997","OBJECT_ID":"2020-055AY"},{"TLE_LINE1":"1 46074U 20055AZ  23037.62672119  .00006601  00000-0  46138-3 0  9990","OBJECT_ID":"2020-055AZ","OBJECT_NAME":"STARLINK-1549","MEAN_MOTION_DDOT":"0.0000000000000","LAUNCH_DATE":"2020-08-07","TIME_SYSTEM":"UTC","CENTER_NAME":"EARTH","MEAN_MOTION":"15.06421019","NORAD_CAT_ID":"46074","GP_ID":"224649388","ECCENTRICITY":"0.00011730","REV_AT_EPOCH":"13942","ARG_OF_PERICENTER":"100.0305","TLE_LINE2":"2 46074  53.0541 116.2013 0001173 100.0305 260.0816 15.06421019139427","COUNTRY_CODE":"US","PERIOD":"95.591","MEAN_ANOMALY":"260.0816","PERIAPSIS":"546.337","BSTAR":"0.00046138000000","FILE":"3776034","SITE":"AFETR","SEMIMAJOR_AXIS":"6925.284","ELEMENT_SET_NO":"999","DECAY_DATE":null,"MEAN_MOTION_DOT":"0.00006601","CLASSIFICATION_TYPE":"U","EPOCH":"2023-02-06T15:02:28.710816","RCS_SIZE":"LARGE","OBJECT_TYPE":"PAYLOAD","INCLINATION":"53.0541","RA_OF_ASC_NODE":"116.2013","MEAN_ELEMENT_THEORY":"SGP4","REF_FRAME":"TEME","APOAPSIS":"547.961","EPHEMERIS_TYPE":"0"},{"TLE_LINE2":"2 46075  53.0538 116.3905 0000927  99.7805 260.3289 15.06416979139426","REV_AT_EPOCH":"13942","ARG_OF_PERICENTER":"99.7805","TIME_SYSTEM":"UTC","CENTER_NAME":"EARTH","LAUNCH_DATE":"2020-08-07","MEAN_MOTION_DDOT":"0.0000000000000","ECCENTRICITY":"0.00009270","GP_ID":"224648137","NORAD_CAT_ID":"46075","MEAN_MOTION":"15.06416979","OBJECT_ID":"2020-055BA","TLE_LINE1":"1 46075U 20055BA  23037.58618229  .00011471  00000-0  78738-3 0  9990","OBJECT_NAME":"STARLINK-1551","MEAN_ELEMENT_THEORY":"SGP4","RA_OF_ASC_NODE":"116.3905","INCLINATION":"53.0538","EPHEMERIS_TYPE":"0","REF_FRAME":"TEME","APOAPSIS":"547.803","RCS_SIZE":"LARGE","CLASSIFICATION_TYPE":"U","EPOCH":"2023-02-06T14:04:06.149856","OBJECT_TYPE":"PAYLOAD","ELEMENT_SET_NO":"999","SITE":"AFETR","SEMIMAJOR_AXIS":"6925.297","FILE":"3776034","MEAN_MOTION_DOT":"0.00011471","DECAY_DATE":null,"PERIOD":"95.591","COUNTRY_CODE":"US","BSTAR":"0.00078738000000","PERIAPSIS":"546.520","MEAN_ANOMALY":"260.3289"}];
